{"fetched_at":"2026-07-16T06:43:05.076Z","source":"https://celestrak.org/NORAD/elements/gp.php?NAME=KINEIS&FORMAT=JSON","constellation":"kineis","records":[{"OBJECT_NAME":"KINEIS-1B","OBJECT_ID":"2024-114A","EPOCH":"2026-07-15T23:25:13.367424","CLASSIFICATION_TYPE":"U","MEAN_MOTION":14.80667604,"ECCENTRICITY":0.00029116,"INCLINATION":97.9828,"RA_OF_ASC_NODE":221.0238,"ARG_OF_PERICENTER":36.7043,"MEAN_ANOMALY":323.4368,"EPHEMERIS_TYPE":0,"NORAD_CAT_ID":60079,"ELEMENT_SET_NO":999,"REV_AT_EPOCH":11166,"BSTAR":0.000049683359,"MEAN_MOTION_DOT":0.00000329,"MEAN_MOTION_DDOT":0},{"OBJECT_NAME":"KINEIS-1C","OBJECT_ID":"2024-114C","EPOCH":"2026-07-15T22:36:20.497824","CLASSIFICATION_TYPE":"U","MEAN_MOTION":14.80669332,"ECCENTRICITY":0.000258,"INCLINATION":97.9841,"RA_OF_ASC_NODE":220.8456,"ARG_OF_PERICENTER":93.8845,"MEAN_ANOMALY":266.2662,"EPHEMERIS_TYPE":0,"NORAD_CAT_ID":60081,"ELEMENT_SET_NO":999,"REV_AT_EPOCH":11163,"BSTAR":0.00004838995,"MEAN_MOTION_DOT":0.00000319,"MEAN_MOTION_DDOT":0},{"OBJECT_NAME":"KINEIS-1D","OBJECT_ID":"2024-114D","EPOCH":"2026-07-15T23:37:23.710944","CLASSIFICATION_TYPE":"U","MEAN_MOTION":14.76363045,"ECCENTRICITY":0.00029726,"INCLINATION":97.9879,"RA_OF_ASC_NODE":216.8058,"ARG_OF_PERICENTER":96.7706,"MEAN_ANOMALY":263.3842,"EPHEMERIS_TYPE":0,"NORAD_CAT_ID":60082,"ELEMENT_SET_NO":999,"REV_AT_EPOCH":11137,"BSTAR":0.000046632168,"MEAN_MOTION_DOT":0.00000273,"MEAN_MOTION_DDOT":0},{"OBJECT_NAME":"KINEIS-1E","OBJECT_ID":"2024-114E","EPOCH":"2026-07-15T23:01:59.357856","CLASSIFICATION_TYPE":"U","MEAN_MOTION":14.80694847,"ECCENTRICITY":0.00041555,"INCLINATION":97.8944,"RA_OF_ASC_NODE":219.9241,"ARG_OF_PERICENTER":108.0035,"MEAN_ANOMALY":252.1631,"EPHEMERIS_TYPE":0,"NORAD_CAT_ID":60083,"ELEMENT_SET_NO":999,"REV_AT_EPOCH":11164,"BSTAR":0.00005697167,"MEAN_MOTION_DOT":0.00000386,"MEAN_MOTION_DDOT":0},{"OBJECT_NAME":"KINEIS-1A","OBJECT_ID":"2024-114F","EPOCH":"2026-07-15T23:50:09.144960","CLASSIFICATION_TYPE":"U","MEAN_MOTION":14.80682849,"ECCENTRICITY":0.00053513,"INCLINATION":97.8917,"RA_OF_ASC_NODE":220.0505,"ARG_OF_PERICENTER":60.5821,"MEAN_ANOMALY":299.5925,"EPHEMERIS_TYPE":0,"NORAD_CAT_ID":60084,"ELEMENT_SET_NO":999,"REV_AT_EPOCH":11165,"BSTAR":0.000050446153,"MEAN_MOTION_DOT":0.00000336,"MEAN_MOTION_DDOT":0},{"OBJECT_NAME":"KINEIS-3C","OBJECT_ID":"2024-172A","EPOCH":"2026-07-15T19:41:16.559520","CLASSIFICATION_TYPE":"U","MEAN_MOTION":14.72290933,"ECCENTRICITY":0.00026337,"INCLINATION":98.0438,"RA_OF_ASC_NODE":286.4158,"ARG_OF_PERICENTER":81.3627,"MEAN_ANOMALY":278.7879,"EPHEMERIS_TYPE":0,"NORAD_CAT_ID":61220,"ELEMENT_SET_NO":999,"REV_AT_EPOCH":9728,"BSTAR":0.00014903566,"MEAN_MOTION_DOT":0.00000892,"MEAN_MOTION_DDOT":0},{"OBJECT_NAME":"KINEIS-3D","OBJECT_ID":"2024-172B","EPOCH":"2026-07-15T04:50:47.807808","CLASSIFICATION_TYPE":"U","MEAN_MOTION":14.72286098,"ECCENTRICITY":0.0002402,"INCLINATION":98.0422,"RA_OF_ASC_NODE":285.8159,"ARG_OF_PERICENTER":86.013,"MEAN_ANOMALY":274.1352,"EPHEMERIS_TYPE":0,"NORAD_CAT_ID":61221,"ELEMENT_SET_NO":999,"REV_AT_EPOCH":9747,"BSTAR":0.000088302627,"MEAN_MOTION_DOT":0.00000508,"MEAN_MOTION_DDOT":0},{"OBJECT_NAME":"KINEIS-3E","OBJECT_ID":"2024-172C","EPOCH":"2026-07-15T19:06:59.627808","CLASSIFICATION_TYPE":"U","MEAN_MOTION":14.72277791,"ECCENTRICITY":0.00017449,"INCLINATION":98.043,"RA_OF_ASC_NODE":286.3838,"ARG_OF_PERICENTER":88.2828,"MEAN_ANOMALY":271.8579,"EPHEMERIS_TYPE":0,"NORAD_CAT_ID":61222,"ELEMENT_SET_NO":999,"REV_AT_EPOCH":9756,"BSTAR":0.00015124853,"MEAN_MOTION_DOT":0.00000906,"MEAN_MOTION_DDOT":0},{"OBJECT_NAME":"KINEIS-3A","OBJECT_ID":"2024-172D","EPOCH":"2026-07-15T18:43:08.540544","CLASSIFICATION_TYPE":"U","MEAN_MOTION":14.72310982,"ECCENTRICITY":0.00021378,"INCLINATION":98.0425,"RA_OF_ASC_NODE":286.4655,"ARG_OF_PERICENTER":41.2601,"MEAN_ANOMALY":318.8767,"EPHEMERIS_TYPE":0,"NORAD_CAT_ID":61223,"ELEMENT_SET_NO":999,"REV_AT_EPOCH":9698,"BSTAR":0.00014625923,"MEAN_MOTION_DOT":0.00000875,"MEAN_MOTION_DDOT":0},{"OBJECT_NAME":"KINEIS-3B","OBJECT_ID":"2024-172E","EPOCH":"2026-07-15T18:18:07.941888","CLASSIFICATION_TYPE":"U","MEAN_MOTION":14.72296972,"ECCENTRICITY":0.00015685,"INCLINATION":98.042,"RA_OF_ASC_NODE":286.4706,"ARG_OF_PERICENTER":27.2129,"MEAN_ANOMALY":332.9161,"EPHEMERIS_TYPE":0,"NORAD_CAT_ID":61224,"ELEMENT_SET_NO":999,"REV_AT_EPOCH":9755,"BSTAR":0.00014202737,"MEAN_MOTION_DOT":0.00000848,"MEAN_MOTION_DDOT":0},{"OBJECT_NAME":"KINEIS-5C","OBJECT_ID":"2024-219A","EPOCH":"2026-07-15T22:38:53.684160","CLASSIFICATION_TYPE":"U","MEAN_MOTION":14.72315092,"ECCENTRICITY":0.00042227,"INCLINATION":97.9068,"RA_OF_ASC_NODE":355.0013,"ARG_OF_PERICENTER":170.7874,"MEAN_ANOMALY":189.3412,"EPHEMERIS_TYPE":0,"NORAD_CAT_ID":62081,"ELEMENT_SET_NO":999,"REV_AT_EPOCH":8798,"BSTAR":0.00005099031,"MEAN_MOTION_DOT":0.00000274,"MEAN_MOTION_DDOT":0},{"OBJECT_NAME":"KINEIS-5D","OBJECT_ID":"2024-219B","EPOCH":"2026-07-15T23:16:56.543232","CLASSIFICATION_TYPE":"U","MEAN_MOTION":14.72494214,"ECCENTRICITY":0.00053479,"INCLINATION":97.918,"RA_OF_ASC_NODE":355.0962,"ARG_OF_PERICENTER":165.256,"MEAN_ANOMALY":194.8805,"EPHEMERIS_TYPE":0,"NORAD_CAT_ID":62082,"ELEMENT_SET_NO":999,"REV_AT_EPOCH":8799,"BSTAR":0.000071216078,"MEAN_MOTION_DOT":0.00000404,"MEAN_MOTION_DDOT":0},{"OBJECT_NAME":"KINEIS-5E","OBJECT_ID":"2024-219C","EPOCH":"2026-07-15T22:04:53.711040","CLASSIFICATION_TYPE":"U","MEAN_MOTION":14.72299617,"ECCENTRICITY":0.00068304,"INCLINATION":97.9025,"RA_OF_ASC_NODE":355.0723,"ARG_OF_PERICENTER":162.3616,"MEAN_ANOMALY":197.783,"EPHEMERIS_TYPE":0,"NORAD_CAT_ID":62083,"ELEMENT_SET_NO":999,"REV_AT_EPOCH":8799,"BSTAR":0.000047075009,"MEAN_MOTION_DOT":0.00000249,"MEAN_MOTION_DDOT":0},{"OBJECT_NAME":"KINEIS-5A","OBJECT_ID":"2024-219D","EPOCH":"2026-07-15T21:33:32.128128","CLASSIFICATION_TYPE":"U","MEAN_MOTION":14.72258489,"ECCENTRICITY":0.00037847,"INCLINATION":97.8966,"RA_OF_ASC_NODE":355.3302,"ARG_OF_PERICENTER":197.3073,"MEAN_ANOMALY":162.8007,"EPHEMERIS_TYPE":0,"NORAD_CAT_ID":62084,"ELEMENT_SET_NO":999,"REV_AT_EPOCH":8799,"BSTAR":0.00018659539,"MEAN_MOTION_DOT":0.0000113,"MEAN_MOTION_DDOT":0},{"OBJECT_NAME":"KINEIS-5B","OBJECT_ID":"2024-219E","EPOCH":"2026-07-15T22:45:48.909600","CLASSIFICATION_TYPE":"U","MEAN_MOTION":14.78386252,"ECCENTRICITY":0.00025372,"INCLINATION":98.0091,"RA_OF_ASC_NODE":0.6202,"ARG_OF_PERICENTER":143.8502,"MEAN_ANOMALY":216.2881,"EPHEMERIS_TYPE":0,"NORAD_CAT_ID":62085,"ELEMENT_SET_NO":999,"REV_AT_EPOCH":8825,"BSTAR":0.000072781527,"MEAN_MOTION_DOT":0.00000478,"MEAN_MOTION_DDOT":0},{"OBJECT_NAME":"KINEIS-2C","OBJECT_ID":"2025-028B","EPOCH":"2026-07-15T03:56:44.674944","CLASSIFICATION_TYPE":"U","MEAN_MOTION":14.73429049,"ECCENTRICITY":0.00042405,"INCLINATION":98.123,"RA_OF_ASC_NODE":250.5878,"ARG_OF_PERICENTER":159.3226,"MEAN_ANOMALY":200.8154,"EPHEMERIS_TYPE":0,"NORAD_CAT_ID":62929,"ELEMENT_SET_NO":999,"REV_AT_EPOCH":7673,"BSTAR":0.0001237754,"MEAN_MOTION_DOT":0.00000752,"MEAN_MOTION_DDOT":0}]}
