KINEIS-1B               
1 60079U 24114A   26196.97584916  .00000329  00000+0  49683-4 0  9994
2 60079  97.9828 221.0238 0002911  36.7043 323.4368 14.80667604111667
KINEIS-1C               
1 60081U 24114C   26196.94190391  .00000319  00000+0  48390-4 0  9997
2 60081  97.9841 220.8456 0002580  93.8845 266.2662 14.80669332111638
KINEIS-1D               
1 60082U 24114D   26196.98430221  .00000273  00000+0  46632-4 0  9997
2 60082  97.9879 216.8058 0002972  96.7706 263.3842 14.76363045111372
KINEIS-1E               
1 60083U 24114E   26196.95971479  .00000386  00000+0  56972-4 0  9993
2 60083  97.8944 219.9241 0004155 108.0035 252.1631 14.80694847111644
KINEIS-1A               
1 60084U 24114F   26196.99316140  .00000336  00000+0  50446-4 0  9991
2 60084  97.8917 220.0505 0005351  60.5821 299.5925 14.80682849111656
KINEIS-3C               
1 61220U 24172A   26196.82033055  .00000892  00000+0  14904-3 0  9996
2 61220  98.0438 286.4158 0002633  81.3627 278.7879 14.72290933 97284
KINEIS-3D               
1 61221U 24172B   26196.20194222  .00000508  00000+0  88303-4 0  9992
2 61221  98.0422 285.8159 0002402  86.0130 274.1352 14.72286098 97471
KINEIS-3E               
1 61222U 24172C   26196.79652347  .00000906  00000+0  15125-3 0  9997
2 61222  98.0430 286.3838 0001744  88.2828 271.8579 14.72277791 97562
KINEIS-3A               
1 61223U 24172D   26196.77995996  .00000875  00000+0  14626-3 0  9996
2 61223  98.0425 286.4655 0002137  41.2601 318.8767 14.72310982 96986
KINEIS-3B               
1 61224U 24172E   26196.76259192  .00000848  00000+0  14203-3 0  9998
2 61224  98.0420 286.4706 0001568  27.2129 332.9161 14.72296972 97556
KINEIS-5C               
1 62081U 24219A   26196.94367690  .00000274  00000+0  50990-4 0  9992
2 62081  97.9068 355.0013 0004222 170.7874 189.3412 14.72315092 87983
KINEIS-5D               
1 62082U 24219B   26196.97009888  .00000404  00000+0  71216-4 0  9997
2 62082  97.9180 355.0962 0005347 165.2560 194.8805 14.72494214 87994
KINEIS-5E               
1 62083U 24219C   26196.92006610  .00000249  00000+0  47075-4 0  9996
2 62083  97.9025 355.0723 0006830 162.3616 197.7830 14.72299617 87996
KINEIS-5A               
1 62084U 24219D   26196.89828852  .00001130  00000+0  18660-3 0  9990
2 62084  97.8966 355.3302 0003784 197.3073 162.8007 14.72258489 87997
KINEIS-5B               
1 62085U 24219E   26196.94848275  .00000478  00000+0  72782-4 0  9998
2 62085  98.0091   0.6202 0002537 143.8502 216.2881 14.78386252 88257
KINEIS-2C               
1 62929U 25028B   26196.16440596  .00000752  00000+0  12378-3 0  9991
2 62929  98.1230 250.5878 0004240 159.3226 200.8154 14.73429049 76732
